start=new Date('2023-05-05T00:00:00.000Z').valueOf();
sats=[{"TLE_LINE2":"2 52708  53.2162 124.1343 0001154  90.2791 269.8333 15.08845801 54474","APOAPSIS":"540.526","MEAN_ELEMENT_THEORY":"SGP4","ARG_OF_PERICENTER":"90.2791","OBJECT_ID":"2022-053BE","CENTER_NAME":"EARTH","LAUNCH_DATE":"2022-05-18","COUNTRY_CODE":"US","RA_OF_ASC_NODE":"124.1343","OBJECT_TYPE":"PAYLOAD","MEAN_MOTION_DDOT":"0.0000000000000","EPOCH":"2023-05-04T09:41:26.226528","PERIAPSIS":"538.929","REV_AT_EPOCH":"5447","TIME_SYSTEM":"UTC","GP_ID":"231240486","INCLINATION":"53.2162","TLE_LINE1":"1 52708U 22053BE  23124.40377577  .00000865  00000-0  72399-4 0  9999","ECCENTRICITY":"0.00011540","DECAY_DATE":null,"MEAN_ANOMALY":"269.8333","MEAN_MOTION_DOT":"0.00000865","SEMIMAJOR_AXIS":"6917.863","REF_FRAME":"TEME","BSTAR":"0.00007239900000","MEAN_MOTION":"15.08845801","NORAD_CAT_ID":"52708","CLASSIFICATION_TYPE":"U","SITE":"AFETR","FILE":"3900892","RCS_SIZE":"LARGE","PERIOD":"95.437","OBJECT_NAME":"STARLINK-3962","EPHEMERIS_TYPE":"0","ELEMENT_SET_NO":"999"},{"APOAPSIS":"540.472","TLE_LINE2":"2 52830  53.2177  21.4965 0001053  93.1199 266.9913 15.08840462 49325","ARG_OF_PERICENTER":"93.1199","MEAN_ELEMENT_THEORY":"SGP4","COUNTRY_CODE":"US","CENTER_NAME":"EARTH","OBJECT_ID":"2022-062A","LAUNCH_DATE":"2022-06-17","REV_AT_EPOCH":"4932","TIME_SYSTEM":"UTC","PERIAPSIS":"539.016","EPOCH":"2023-05-04T23:51:57.965760","TLE_LINE1":"1 52830U 22062A   23124.99442090  .00000218  00000-0  31789-4 0  9992","ECCENTRICITY":"0.00010530","INCLINATION":"53.2177","GP_ID":"231248676","OBJECT_TYPE":"PAYLOAD","RA_OF_ASC_NODE":"21.4965","MEAN_MOTION_DDOT":"0.0000000000000","MEAN_MOTION_DOT":"0.00000218","SEMIMAJOR_AXIS":"6917.879","MEAN_ANOMALY":"266.9913","DECAY_DATE":null,"BSTAR":"0.00003178900000","REF_FRAME":"TEME","NORAD_CAT_ID":"52830","MEAN_MOTION":"15.08840462","CLASSIFICATION_TYPE":"U","SITE":"AFETR","OBJECT_NAME":"STARLINK-4091","PERIOD":"95.438","ELEMENT_SET_NO":"999","EPHEMERIS_TYPE":"0","FILE":"3901151","RCS_SIZE":"LARGE"},{"REF_FRAME":"TEME","BSTAR":"0.00004178700000","MEAN_MOTION":"15.08843846","NORAD_CAT_ID":"52831","MEAN_MOTION_DOT":"0.00000377","SEMIMAJOR_AXIS":"6917.869","DECAY_DATE":null,"MEAN_ANOMALY":"277.7645","PERIOD":"95.437","OBJECT_NAME":"STARLINK-4089","EPHEMERIS_TYPE":"0","ELEMENT_SET_NO":"999","FILE":"3901151","RCS_SIZE":"LARGE","SITE":"AFETR","CLASSIFICATION_TYPE":"U","ARG_OF_PERICENTER":"82.3467","MEAN_ELEMENT_THEORY":"SGP4","APOAPSIS":"540.469","TLE_LINE2":"2 52831  53.2171  21.4485 0001063  82.3467 277.7645 15.08843846 49327","PERIAPSIS":"538.998","EPOCH":"2023-05-05T00:07:51.667104","TIME_SYSTEM":"UTC","REV_AT_EPOCH":"4932","GP_ID":"231248670","ECCENTRICITY":"0.00010630","TLE_LINE1":"1 52831U 22062B   23125.00545911  .00000377  00000-0  41787-4 0  9997","INCLINATION":"53.2171","RA_OF_ASC_NODE":"21.4485","OBJECT_TYPE":"PAYLOAD","MEAN_MOTION_DDOT":"0.0000000000000","COUNTRY_CODE":"US","OBJECT_ID":"2022-062B","CENTER_NAME":"EARTH","LAUNCH_DATE":"2022-06-17"},{"ELEMENT_SET_NO":"999","EPHEMERIS_TYPE":"0","OBJECT_NAME":"STARLINK-4083","PERIOD":"95.437","RCS_SIZE":"LARGE","FILE":"3901151","CLASSIFICATION_TYPE":"U","SITE":"AFETR","NORAD_CAT_ID":"52832","MEAN_MOTION":"15.08847386","BSTAR":"0.00007883800000","REF_FRAME":"TEME","SEMIMAJOR_AXIS":"6917.858","MEAN_MOTION_DOT":"0.00000967","MEAN_ANOMALY":"274.8015","DECAY_DATE":null,"ECCENTRICITY":"0.00010750","TLE_LINE1":"1 52832U 22062C   23125.00177515  .00000967  00000-0  78838-4 0  9991","INCLINATION":"53.2178","GP_ID":"231248830","REV_AT_EPOCH":"4931","TIME_SYSTEM":"UTC","EPOCH":"2023-05-05T00:02:33.372960","PERIAPSIS":"538.979","MEAN_MOTION_DDOT":"0.0000000000000","OBJECT_TYPE":"PAYLOAD","RA_OF_ASC_NODE":"21.4645","COUNTRY_CODE":"US","LAUNCH_DATE":"2022-06-17","CENTER_NAME":"EARTH","OBJECT_ID":"2022-062C","ARG_OF_PERICENTER":"85.3100","MEAN_ELEMENT_THEORY":"SGP4","APOAPSIS":"540.466","TLE_LINE2":"2 52832  53.2178  21.4645 0001075  85.3100 274.8015 15.08847386 49314"},{"APOAPSIS":"540.361","TLE_LINE2":"2 52833  53.2172  21.4783 0000933  80.0533 280.0564 15.08849751 48827","ARG_OF_PERICENTER":"80.0533","MEAN_ELEMENT_THEORY":"SGP4","COUNTRY_CODE":"US","OBJECT_ID":"2022-062D","CENTER_NAME":"EARTH","LAUNCH_DATE":"2022-06-17","EPOCH":"2023-05-04T23:57:15.465024","PERIAPSIS":"539.070","TIME_SYSTEM":"UTC","REV_AT_EPOCH":"4882","GP_ID":"231248825","TLE_LINE1":"1 52833U 22062D   23124.99809566  .00001699  00000-0  12478-3 0  9997","ECCENTRICITY":"0.00009330","INCLINATION":"53.2172","RA_OF_ASC_NODE":"21.4783","OBJECT_TYPE":"PAYLOAD","MEAN_MOTION_DDOT":"0.0000000000000","MEAN_MOTION_DOT":"0.00001699","SEMIMAJOR_AXIS":"6917.851","DECAY_DATE":null,"MEAN_ANOMALY":"280.0564","REF_FRAME":"TEME","BSTAR":"0.00012478000000","MEAN_MOTION":"15.08849751","NORAD_CAT_ID":"52833","CLASSIFICATION_TYPE":"U","SITE":"AFETR","PERIOD":"95.437","OBJECT_NAME":"STARLINK-4086","EPHEMERIS_TYPE":"0","ELEMENT_SET_NO":"999","FILE":"3901151","RCS_SIZE":"LARGE"},{"GP_ID":"231248666","TLE_LINE1":"1 52834U 22062E   23124.99074019  .00000682  00000-0  60908-4 0  9998","INCLINATION":"53.2162","ECCENTRICITY":"0.00009780","EPOCH":"2023-05-04T23:46:39.952416","PERIAPSIS":"539.057","REV_AT_EPOCH":"4882","TIME_SYSTEM":"UTC","MEAN_MOTION_DDOT":"0.0000000000000","RA_OF_ASC_NODE":"21.5132","OBJECT_TYPE":"PAYLOAD","COUNTRY_CODE":"US","LAUNCH_DATE":"2022-06-17","OBJECT_ID":"2022-062E","CENTER_NAME":"EARTH","ARG_OF_PERICENTER":"82.9998","MEAN_ELEMENT_THEORY":"SGP4","APOAPSIS":"540.410","TLE_LINE2":"2 52834  53.2162  21.5132 0000978  82.9998 277.1106 15.08843878 48824","EPHEMERIS_TYPE":"0","ELEMENT_SET_NO":"999","PERIOD":"95.437","OBJECT_NAME":"STARLINK-4108","RCS_SIZE":"LARGE","FILE":"3901151","SITE":"AFETR","CLASSIFICATION_TYPE":"U","MEAN_MOTION":"15.08843878","NORAD_CAT_ID":"52834","REF_FRAME":"TEME","BSTAR":"0.00006090800000","SEMIMAJOR_AXIS":"6917.869","MEAN_MOTION_DOT":"0.00000682","DECAY_DATE":null,"MEAN_ANOMALY":"277.1106"},{"TLE_LINE2":"2 52835  53.2177  22.1197 0001139  95.3985 264.7137 15.08833018 48802","APOAPSIS":"540.555","MEAN_ELEMENT_THEORY":"SGP4","ARG_OF_PERICENTER":"95.3985","OBJECT_ID":"2022-062F","CENTER_NAME":"EARTH","LAUNCH_DATE":"2022-06-17","COUNTRY_CODE":"US","RA_OF_ASC_NODE":"22.1197","OBJECT_TYPE":"PAYLOAD","MEAN_MOTION_DDOT":"0.0000000000000","PERIAPSIS":"538.979","EPOCH":"2023-05-04T20:30:36.463680","REV_AT_EPOCH":"4880","TIME_SYSTEM":"UTC","GP_ID":"231273552","TLE_LINE1":"1 52835U 22062F   23124.85458870 -.00000221  00000-0  42157-5 0  9992","INCLINATION":"53.2177","ECCENTRICITY":"0.00011390","DECAY_DATE":null,"MEAN_ANOMALY":"264.7137","MEAN_MOTION_DOT":"-0.00000221","SEMIMAJOR_AXIS":"6917.902","REF_FRAME":"TEME","BSTAR":"0.00000421570000","MEAN_MOTION":"15.08833018","NORAD_CAT_ID":"52835","CLASSIFICATION_TYPE":"U","SITE":"AFETR","FILE":"3901186","RCS_SIZE":"LARGE","PERIOD":"95.438","OBJECT_NAME":"STARLINK-4080","EPHEMERIS_TYPE":"0","ELEMENT_SET_NO":"999"},{"REF_FRAME":"TEME","BSTAR":"0.00006092600000","MEAN_MOTION":"15.08849624","NORAD_CAT_ID":"52836","MEAN_MOTION_DOT":"0.00000682","SEMIMAJOR_AXIS":"6917.851","DECAY_DATE":null,"MEAN_ANOMALY":"264.6899","PERIOD":"95.437","OBJECT_NAME":"STARLINK-4043","EPHEMERIS_TYPE":"0","ELEMENT_SET_NO":"999","FILE":"3901152","RCS_SIZE":"LARGE","CLASSIFICATION_TYPE":"U","SITE":"AFETR","ARG_OF_PERICENTER":"95.4213","MEAN_ELEMENT_THEORY":"SGP4","APOAPSIS":"540.440","TLE_LINE2":"2 52836  53.2179  21.5416 0001047  95.4213 264.6899 15.08849624 48821","PERIAPSIS":"538.992","EPOCH":"2023-05-04T23:36:03.869568","REV_AT_EPOCH":"4882","TIME_SYSTEM":"UTC","GP_ID":"231248679","TLE_LINE1":"1 52836U 22062G   23124.98337812  .00000682  00000-0  60926-4 0  9992","INCLINATION":"53.2179","ECCENTRICITY":"0.00010470","RA_OF_ASC_NODE":"21.5416","OBJECT_TYPE":"PAYLOAD","MEAN_MOTION_DDOT":"0.0000000000000","COUNTRY_CODE":"US","OBJECT_ID":"2022-062G","CENTER_NAME":"EARTH","LAUNCH_DATE":"2022-06-17"},{"RCS_SIZE":"LARGE","FILE":"3901152","EPHEMERIS_TYPE":"0","ELEMENT_SET_NO":"999","PERIOD":"95.437","OBJECT_NAME":"STARLINK-4036","CLASSIFICATION_TYPE":"U","SITE":"AFETR","MEAN_MOTION":"15.08854918","NORAD_CAT_ID":"52837","REF_FRAME":"TEME","BSTAR":"0.00025908000000","DECAY_DATE":null,"MEAN_ANOMALY":"278.5207","SEMIMAJOR_AXIS":"6917.835","MEAN_MOTION_DOT":"0.00003839","MEAN_MOTION_DDOT":"0.0000000000000","RA_OF_ASC_NODE":"21.5744","OBJECT_TYPE":"PAYLOAD","GP_ID":"231248841","INCLINATION":"53.2175","TLE_LINE1":"1 52837U 22062H   23124.97601768  .00003839  00000-0  25908-3 0  9993","ECCENTRICITY":"0.00010360","PERIAPSIS":"538.983","EPOCH":"2023-05-04T23:25:27.927552","REV_AT_EPOCH":"4882","TIME_SYSTEM":"UTC","LAUNCH_DATE":"2022-06-17","OBJECT_ID":"2022-062H","CENTER_NAME":"EARTH","COUNTRY_CODE":"US","MEAN_ELEMENT_THEORY":"SGP4","ARG_OF_PERICENTER":"81.5902","TLE_LINE2":"2 52837  53.2175  21.5744 0001036  81.5902 278.5207 15.08854918 48820","APOAPSIS":"540.416"},{"CLASSIFICATION_TYPE":"U","SITE":"AFETR","FILE":"3901186","RCS_SIZE":"LARGE","PERIOD":"95.437","OBJECT_NAME":"STARLINK-4092","EPHEMERIS_TYPE":"0","ELEMENT_SET_NO":"999","DECAY_DATE":null,"MEAN_ANOMALY":"271.3571","MEAN_MOTION_DOT":"0.00000573","SEMIMAJOR_AXIS":"6917.857","REF_FRAME":"TEME","BSTAR":"0.00005405500000","MEAN_MOTION":"15.08847566","NORAD_CAT_ID":"52838","OBJECT_ID":"2022-062J","CENTER_NAME":"EARTH","LAUNCH_DATE":"2022-06-17","COUNTRY_CODE":"US","RA_OF_ASC_NODE":"21.8455","OBJECT_TYPE":"PAYLOAD","MEAN_MOTION_DDOT":"0.0000000000000","PERIAPSIS":"539.010","EPOCH":"2023-05-04T21:55:22.685664","REV_AT_EPOCH":"4881","TIME_SYSTEM":"UTC","GP_ID":"231273800","TLE_LINE1":"1 52838U 22062J   23124.91345701  .00000573  00000-0  54055-4 0  9998","INCLINATION":"53.2185","ECCENTRICITY":"0.00010300","TLE_LINE2":"2 52838  53.2185  21.8455 0001030  88.7539 271.3571 15.08847566 48818","APOAPSIS":"540.435","MEAN_ELEMENT_THEORY":"SGP4","ARG_OF_PERICENTER":"88.7539"}];
